OBJECT_NAME,OBJECT_ID,EPOCH,MEAN_MOTION,ECCENTRICITY,INCLINATION,RA_OF_ASC_NODE,ARG_OF_PERICENTER,MEAN_ANOMALY,EPHEMERIS_TYPE,CLASSIFICATION_TYPE,NORAD_CAT_ID,ELEMENT_SET_NO,REV_AT_EPOCH,BSTAR,MEAN_MOTION_DOT,MEAN_MOTION_DDOT
DELTA 1 R/B,1965-004B,2022-12-14T15:58:05.178144,12.14807459,.1142467,96.4335,80.5380,168.9457,193.9190,0,U,979,999,56003,.22867E-3,.174E-5,0
TITAN 3A DEB (TRUSS),1965-008B,2022-12-14T17:32:17.066112,9.88889869,.000998,32.1397,132.8632,56.2682,303.8765,0,U,1000,999,9060,-.15097E-2,-.3E-7,0
TITAN 3A TRANSTAGE R/B,1965-008A,2022-12-14T04:42:21.572928,9.90724320,.001709,32.1468,279.2307,288.3863,71.4777,0,U,1001,999,9443,.47244E-3,.12E-6,0
LES-1,1965-008C,2022-12-15T00:18:05.879520,9.88354105,.0015148,32.1380,197.3813,321.8898,38.0527,0,U,1002,999,8982,-.10595E-2,0,0
THOR ABLESTAR DEB,1964-083G,2022-12-15T11:20:07.937376,13.62129333,.004266,89.8784,158.0604,101.5573,312.3815,0,U,1099,999,80862,.25604E-3,.209E-5,0
SECOR 3,1965-016E,2022-12-15T09:46:50.285280,13.95681781,.0022012,70.0804,29.0691,321.6874,52.1850,0,U,1208,999,94104,.67931E-4,.4E-6,0
GGSE 2,1965-016B,2022-12-15T09:30:18.971424,13.95742504,.0022664,70.0801,31.6811,324.8461,35.1149,0,U,1244,999,93991,.75046E-4,.5E-6,0
THOR AGENA D R/B,1965-016J,2022-12-15T03:58:16.338432,13.97136262,.0024273,70.0782,317.6253,292.6967,67.1573,0,U,1245,999,94195,.70968E-4,.47E-6,0
OPS 4988 (GREB 6),1965-016A,2022-12-14T11:52:56.183808,13.96227372,.0023146,70.0801,7.5781,309.6206,213.9247,0,U,1271,999,94005,.6275E-4,.34E-6,0
PORCUPINE 1,1965-016H,2022-12-14T16:44:15.979488,13.94275979,.0022442,70.0802,89.3792,354.6774,5.4089,0,U,1272,999,93790,.54E-4,.2E-6,0
SOLRAD 7B,1965-016D,2022-12-14T16:30:41.435712,13.94662201,.0021292,70.0801,77.9731,353.8924,6.1919,0,U,1291,999,93818,.66269E-4,.37E-6,0
GGSE 3,1965-016C,2022-12-14T20:11:32.721216,14.00775177,.0021334,70.0758,182.3799,213.9535,146.0209,0,U,1292,999,94520,.10671E-3,.106E-5,0
OSCAR 3 (OSCAR III),1965-016F,2022-12-14T14:18:12.564000,14.06749346,.0014258,70.0746,300.4815,58.6794,301.5711,0,U,1293,999,95193,.18427E-3,.253E-5,0
DELTA 1 DEB,1965-004C,2022-12-14T21:16:22.601280,12.27529525,.11203,96.3377,213.2295,91.5521,281.3917,0,U,1312,999,58711,.12139E-3,.115E-5,0
DELTA 1 DEB,1965-004D,2022-12-12T00:12:14.012064,12.00473863,.117559,96.4013,182.6934,166.1107,197.5482,0,U,1313,999,53245,-.90335E-3,-.614E-5,0
OPS 4682 (SNAPSHOT),1965-027A,2022-12-15T11:09:26.471808,12.91769423,.0031173,90.2558,337.8297,30.2441,124.2123,0,U,1314,999,46620,.85274E-4,.3E-6,0
SECOR 4 (EGRS 4),1965-027B,2022-12-14T18:47:12.367392,12.92622571,.0029709,90.2478,347.0134,305.5669,228.3521,0,U,1315,999,72150,.10805E-3,.36E-6,0
OPS 4682 DEB,1965-027C,2022-12-14T17:28:11.958816,13.19658429,.003234,90.2445,356.9998,97.7655,262.7152,0,U,1316,999,74994,.1899E-2,.77E-5,0
INTELSAT 1-F1,1965-028A,2022-12-14T06:42:05.460768,1.00197671,.00054,4.0251,74.7776,101.2253,294.0439,0,U,1317,999,11433,0,-.232E-5,0
DELTA 1 R/B(2),1965-028B,2022-12-13T05:06:24.833952,2.11825631,.6965137,17.4126,262.9642,211.9528,353.7545,0,U,1318,999,8015,0,-.43E-6,0
EXPLORER 27,1965-032A,2022-12-14T18:45:19.251648,13.38702269,.0255028,41.1841,95.2324,126.7746,235.6705,0,U,1328,999,81715,.15698E-3,.18E-6,0
SL-8 DEB,1965-020E,2022-12-15T04:52:30.355104,13.80749496,.0549893,56.0775,47.6603,108.7374,257.4072,0,U,1335,999,83318,.18251E-3,.433E-5,0
SCOUT X-4 R/B,1965-032B,2022-12-14T16:43:20.882208,13.38096462,.0251193,41.1883,139.4491,54.4097,307.9789,0,U,1358,999,81613,.63491E-4,-.46E-6,0
TITAN 3A TRANSTAGE R/B,1965-034A,2022-12-14T08:07:53.593536,9.17128004,.0498491,32.1231,292.5882,79.7139,285.9136,0,U,1359,999,93106,.39485E-2,.2E-6,0
LES-2,1965-034B,2022-12-14T15:46:49.520640,4.64817271,.3965817,32.1944,39.6733,7.8068,356.9577,0,U,1360,999,97830,0,-.52E-6,0
LCS 1,1965-034C,2022-12-14T16:00:57.166848,9.89302102,.0011219,32.1456,337.4100,157.4404,202.6588,0,U,1361,999,8307,.62346E-3,.13E-6,0
OPS 4682 DEB,1965-027D,2022-12-15T10:28:48.925632,13.12326521,.0030566,89.7905,240.2204,7.4276,169.1481,0,U,1389,999,74306,.27956E-2,.1015E-4,0
SL-8 DEB,1965-020AH,2022-12-15T02:43:45.089184,14.50798090,.0328549,55.8835,326.9345,305.4960,51.5792,0,U,1392,999,90639,.90157E-3,.7007E-4,0
OPS 4682 DEB,1965-027E,2022-12-14T23:17:14.114400,12.99034050,.0010294,90.2546,354.7502,74.0065,286.2189,0,U,1399,999,39665,-.12009E-2,-.349E-5,0
OPS 8480 (TRANSIT 5B-6),1965-048A,2022-12-14T14:31:12.798336,13.51480427,.007347,89.9068,300.4449,180.6611,354.4160,0,U,1420,999,83045,.1918E-3,.137E-5,0
THOR ABLESTAR DEB,1965-048C,2022-12-14T14:52:28.909920,13.48812443,.0072452,89.9045,299.2952,320.0419,214.2391,0,U,1425,999,82779,.68213E-4,.52E-6,0
THOR ABLESTAR R/B,1965-048B,2022-12-14T10:47:11.046624,13.52550264,.0055067,89.9035,299.6357,298.7063,180.1981,0,U,1428,999,83551,.9078E-4,.7E-6,0
TIROS 10,1965-051A,2022-12-14T13:22:06.595392,14.40453676,.0055649,98.3903,102.4352,327.5343,32.2426,0,U,1430,999,1147,.66265E-4,.17E-5,0
DELTA 1 R/B,1965-051B,2022-12-14T13:28:01.651872,14.57404049,.0041397,98.4309,95.7215,276.0892,83.5590,0,U,1433,999,795,.21206E-3,.923E-5,0
THOR ABLESTAR DEB,1965-048D,2022-12-14T09:30:38.276640,13.70654238,.0061995,89.9144,304.0488,196.8908,292.1549,0,U,1435,999,85182,.63576E-3,.582E-5,0
OPS 6577 (VELA 5),1965-058A,2022-12-17T07:02:42.700992,0.21365927,.4934788,21.2189,16.5037,278.1412,357.8841,0,U,1458,999,932,0,-.1106E-4,0
OPS 6564 (VELA 6),1965-058B,2022-12-07T19:48:45.136224,0.21449022,.4538825,39.6902,29.2103,35.1310,359.6420,0,U,1459,999,650,0,-.1347E-4,0
SL-8 DEB,1965-020BB,2022-12-14T17:54:27.003168,12.97058808,.0592012,55.4877,146.7426,66.5315,299.6688,0,U,1477,999,71190,.19199E-2,.1134E-4,0
SL-8 DEB,1965-020BC,2022-12-14T17:41:36.260736,13.46500858,.0628724,56.0888,199.8411,314.5778,40.5456,0,U,1478,999,75178,.59587E-3,.1084E-4,0
SL-8 DEB,1965-020BD,2022-12-15T00:15:40.010400,12.59061785,.07539,56.0301,256.6924,85.5724,283.0858,0,U,1479,999,63544,.98984E-3,.402E-5,0
SL-8 DEB,1965-020BE,2022-12-15T10:58:45.257664,12.62878759,.0848828,56.0705,328.3147,90.8105,279.0042,0,U,1480,999,64879,.74463E-3,.453E-5,0
SCOUT B R/B,1965-063B,2022-12-15T03:48:50.478912,11.78563458,.0779877,69.2347,29.0031,107.9728,292.3030,0,U,1502,999,46755,-.19869E-3,-.58E-6,0
THOR ABLESTAR DEB,1965-065A,2022-12-14T17:49:37.515648,13.39682109,.0065282,89.8928,250.9246,256.1114,161.7396,0,U,1504,999,79622,.28983E-3,.168E-5,0
SECOR 5 (EGRS 5),1965-063A,2022-12-14T14:58:58.160928,11.78652389,.0781918,69.2367,24.3927,100.1846,342.0916,0,U,1506,999,46734,-.1431E-3,-.5E-6,0
THOR ABLESTAR R/B,1965-065B,2022-12-15T03:16:47.711712,13.35990593,.0041565,90.1708,288.3963,345.2150,26.0626,0,U,1508,999,79505,.81323E-4,.5E-6,0
DODECAPOLE 2,1965-065C,2022-12-15T07:29:27.951648,13.97310426,.0036926,90.0390,17.9361,274.9921,84.7041,0,U,1510,999,85402,.15888E-2,.2249E-4,0
THOR ABLESTAR DEB,1965-065D,2022-12-15T02:51:26.807328,13.34030642,.0068254,89.9248,216.0688,204.1867,310.8321,0,U,1511,999,79039,.47391E-4,.33E-6,0
TEMPSAT 1,1965-065E,2022-12-14T16:53:42.240768,13.33463664,.0068332,89.9234,217.2541,243.8539,184.8285,0,U,1512,999,78939,.61195E-4,.39E-6,0
OPS 8464 (TRANSIT 5B-7),1965-065F,2022-12-15T03:50:57.848928,13.35045727,.0070293,89.9122,233.6595,164.9271,349.7672,0,U,1514,999,79098,.11718E-3,.69E-6,0
NAVSPASUR ROD 1,1965-065G,2022-12-14T21:54:50.937984,13.49213683,.0057004,89.9494,215.9900,53.6193,321.4282,0,U,1515,999,80757,.94469E-3,.609E-5,0
CALSPHERE 4A,1965-065H,2022-12-14T20:47:41.178048,13.35921306,.0070637,89.9812,129.9519,114.5427,344.9797,0,U,1520,999,79174,.1828E-3,.104E-5,0
THOR ABLESTAR DEB,1965-065K,2022-12-14T21:20:36.207744,13.33185096,.0067837,89.9504,211.8806,256.0899,114.0457,0,U,1521,999,78881,.37537E-4,.27E-6,0
THOR ABLESTAR DEB,1965-065L,2022-12-15T03:30:46.776672,13.33687185,.0069758,90.1456,113.0164,243.1428,290.3131,0,U,1522,999,78957,.12833E-3,.72E-6,0
DELTA 1 DEB,1965-051D,2022-12-15T05:49:22.154592,14.23159890,.0035773,99.1009,169.3792,296.4551,63.2957,0,U,1529,999,97391,.11649E-3,.217E-5,0
SL-8 DEB,1965-020CV,2022-12-14T23:07:44.715936,12.62836439,.0854931,56.1653,268.0590,134.3568,233.0717,0,U,1549,999,65355,.11679E-3,-.15E-6,0
COSMOS 80,1965-070A,2022-12-14T18:29:01.917312,12.52771684,.0102714,56.0570,344.6103,27.1914,145.9663,0,U,1570,999,62089,.28605E-4,-.92E-6,0
COSMOS 81,1965-070B,2022-12-14T14:13:58.291392,12.48840724,.008887,56.0620,49.9657,165.0920,0.7756,0,U,1571,999,61308,.10314E-4,-.94E-6,0
COSMOS 82,1965-070C,2022-12-09T08:51:51.693120,12.45097979,.0074569,56.0592,95.9929,343.8414,113.8091,0,U,1572,999,60405,-.10324E-3,-.109E-5,0
COSMOS 83,1965-070D,2022-12-14T17:54:05.592384,12.41021384,.006804,56.0518,141.9452,175.0545,185.1043,0,U,1573,999,59625,-.12084E-4,-.95E-6,0
COSMOS 84,1965-070E,2022-12-15T08:44:42.688608,12.37013693,.0063614,56.0507,197.7060,351.9409,179.3742,0,U,1574,999,58850,-.24311E-4,-.95E-6,0
SL-8 R/B,1965-070F,2022-12-14T18:49:10.317216,12.56984669,.0099213,56.1258,6.6605,147.5826,24.2915,0,U,1575,999,62976,.21135E-4,-.94E-6,0
VANGUARD DEB,1958-002C,2022-12-14T22:03:46.477152,11.71761085,.144305,34.2266,71.0326,75.9853,299.6530,0,U,1576,999,66771,.19082E-3,.19E-5,0
PORCUPINE 2,1965-065J,2022-12-15T09:46:54.096384,13.35889330,.0071518,89.9581,212.6734,113.4647,62.2877,0,U,1577,999,79216,.2196E-3,.124E-5,0
OPS 8068,1965-072A,2022-12-14T19:10:44.311872,14.27826930,.0233169,98.3236,176.2432,229.4051,128.6637,0,U,1580,999,95023,.14457E-3,.428E-5,0
THOR ALTAIR R/B,1965-072D,2022-12-14T17:57:21.777408,14.57340088,.0156578,98.5042,172.7339,247.1631,111.2966,0,U,1583,999,97993,.39091E-3,.2035E-4,0
COSMOS 86,1965-073A,2022-12-14T18:50:30.809184,12.51884879,.0212758,56.0606,10.5557,350.6420,179.7177,0,U,1584,999,61710,.99005E-4,-.79E-6,0
COSMOS 87,1965-073B,2022-12-15T03:21:16.060608,12.47436427,.0205218,56.0591,124.0116,109.0881,60.0645,0,U,1585,999,60663,.35408E-4,-.9E-6,0
